start=new Date('2023-05-08T00:00:00.000Z').valueOf();
sats=[{"PERIOD":"94.870","COUNTRY_CODE":"US","OBJECT_ID":"2022-041S","INCLINATION":"53.2113","OBJECT_NAME":"STARLINK-3787","ECCENTRICITY":"0.00058310","APOAPSIS":"516.289","ARG_OF_PERICENTER":"50.2808","TLE_LINE2":"2 52277  53.2113  83.8807 0005831  50.2808 309.8701 15.17873163 57770","REF_FRAME":"TEME","OBJECT_TYPE":"PAYLOAD","LAUNCH_DATE":"2022-04-21","REV_AT_EPOCH":"5777","MEAN_MOTION_DOT":"0.00049426","RCS_SIZE":"LARGE","SEMIMAJOR_AXIS":"6890.407","EPHEMERIS_TYPE":"0","TIME_SYSTEM":"UTC","SITE":"AFETR","EPOCH":"2023-05-07T03:26:56.969952","PERIAPSIS":"508.254","CLASSIFICATION_TYPE":"U","ELEMENT_SET_NO":"999","GP_ID":"231398836","MEAN_MOTION":"15.17873163","NORAD_CAT_ID":"52277","RA_OF_ASC_NODE":"83.8807","DECAY_DATE":null,"BSTAR":"0.00240850000000","MEAN_ANOMALY":"309.8701","FILE":"3903215","MEAN_MOTION_DDOT":"0.0000000000000","MEAN_ELEMENT_THEORY":"SGP4","TLE_LINE1":"1 52277U 22041S   23127.14371493  .00049426  00000-0  24085-2 0  9995","CENTER_NAME":"EARTH"},{"NORAD_CAT_ID":"52278","MEAN_MOTION":"15.08848924","GP_ID":"231404411","ELEMENT_SET_NO":"999","CLASSIFICATION_TYPE":"U","PERIAPSIS":"538.925","DECAY_DATE":null,"BSTAR":"0.00014123000000","RA_OF_ASC_NODE":"86.8155","MEAN_ELEMENT_THEORY":"SGP4","MEAN_MOTION_DDOT":"0.0000000000000","FILE":"3903307","MEAN_ANOMALY":"263.2853","CENTER_NAME":"EARTH","TLE_LINE1":"1 52278U 22041T   23127.14951835  .00001961  00000-0  14123-3 0  9995","TLE_LINE2":"2 52278  53.2164  86.8155 0001146  96.8269 263.2853 15.08848924 58957","ARG_OF_PERICENTER":"96.8269","ECCENTRICITY":"0.00011460","APOAPSIS":"540.511","COUNTRY_CODE":"US","INCLINATION":"53.2164","OBJECT_ID":"2022-041T","OBJECT_NAME":"STARLINK-3780","PERIOD":"95.437","LAUNCH_DATE":"2022-04-21","OBJECT_TYPE":"PAYLOAD","REF_FRAME":"TEME","RCS_SIZE":"LARGE","MEAN_MOTION_DOT":"0.00001961","REV_AT_EPOCH":"5895","EPOCH":"2023-05-07T03:35:18.385440","SITE":"AFETR","TIME_SYSTEM":"UTC","EPHEMERIS_TYPE":"0","SEMIMAJOR_AXIS":"6917.853"},{"REV_AT_EPOCH":"5904","RCS_SIZE":"LARGE","MEAN_MOTION_DOT":"0.00038955","EPHEMERIS_TYPE":"0","SEMIMAJOR_AXIS":"6884.111","SITE":"AFETR","EPOCH":"2023-05-07T04:36:14.992416","TIME_SYSTEM":"UTC","APOAPSIS":"509.019","ECCENTRICITY":"0.00044200","PERIOD":"94.740","OBJECT_ID":"2022-041U","COUNTRY_CODE":"US","INCLINATION":"53.2118","OBJECT_NAME":"STARLINK-3686","TLE_LINE2":"2 52279  53.2118  80.7660 0004420  71.5089 288.6388 15.19955768 59041","ARG_OF_PERICENTER":"71.5089","OBJECT_TYPE":"PAYLOAD","REF_FRAME":"TEME","LAUNCH_DATE":"2022-04-21","FILE":"3903307","MEAN_ANOMALY":"288.6388","MEAN_ELEMENT_THEORY":"SGP4","MEAN_MOTION_DDOT":"0.0000000000000","CENTER_NAME":"EARTH","TLE_LINE1":"1 52279U 22041U   23127.19184019  .00038955  00000-0  17935-2 0  9999","GP_ID":"231404408","MEAN_MOTION":"15.19955768","CLASSIFICATION_TYPE":"U","PERIAPSIS":"502.933","ELEMENT_SET_NO":"999","NORAD_CAT_ID":"52279","RA_OF_ASC_NODE":"80.7660","BSTAR":"0.00179350000000","DECAY_DATE":null},{"CENTER_NAME":"EARTH","TLE_LINE1":"1 52280U 22041V   23127.27095519  .00001588  00000-0  11783-3 0  9994","MEAN_MOTION_DDOT":"0.0000000000000","MEAN_ELEMENT_THEORY":"SGP4","MEAN_ANOMALY":"266.3957","FILE":"3903215","DECAY_DATE":null,"BSTAR":"0.00011783000000","RA_OF_ASC_NODE":"86.2697","NORAD_CAT_ID":"52280","ELEMENT_SET_NO":"999","CLASSIFICATION_TYPE":"U","PERIAPSIS":"538.865","MEAN_MOTION":"15.08851114","GP_ID":"231399589","TIME_SYSTEM":"UTC","EPOCH":"2023-05-07T06:30:10.528416","SITE":"AFETR","SEMIMAJOR_AXIS":"6917.846","EPHEMERIS_TYPE":"0","RCS_SIZE":"LARGE","MEAN_MOTION_DOT":"0.00001588","REV_AT_EPOCH":"5775","LAUNCH_DATE":"2022-04-21","REF_FRAME":"TEME","OBJECT_TYPE":"PAYLOAD","ARG_OF_PERICENTER":"93.7175","TLE_LINE2":"2 52280  53.2171  86.2697 0001224  93.7175 266.3957 15.08851114 57753","INCLINATION":"53.2171","COUNTRY_CODE":"US","OBJECT_ID":"2022-041V","OBJECT_NAME":"STARLINK-3764","PERIOD":"95.437","ECCENTRICITY":"0.00012240","APOAPSIS":"540.558"},{"ECCENTRICITY":"0.00013510","APOAPSIS":"540.727","PERIOD":"95.439","COUNTRY_CODE":"US","INCLINATION":"53.2171","OBJECT_ID":"2022-041W","OBJECT_NAME":"STARLINK-3779","TLE_LINE2":"2 52281  53.2171  85.3046 0001351 100.3763 259.7382 15.08824476 59000","ARG_OF_PERICENTER":"100.3763","OBJECT_TYPE":"PAYLOAD","REF_FRAME":"TEME","LAUNCH_DATE":"2022-04-21","REV_AT_EPOCH":"5900","RCS_SIZE":"LARGE","MEAN_MOTION_DOT":"-0.00002019","EPHEMERIS_TYPE":"0","SEMIMAJOR_AXIS":"6917.928","SITE":"AFETR","EPOCH":"2023-05-07T11:38:56.097600","TIME_SYSTEM":"UTC","GP_ID":"231373030","MEAN_MOTION":"15.08824476","CLASSIFICATION_TYPE":"U","PERIAPSIS":"538.858","ELEMENT_SET_NO":"999","NORAD_CAT_ID":"52281","RA_OF_ASC_NODE":"85.3046","DECAY_DATE":null,"BSTAR":"-0.00010885000000","FILE":"3903102","MEAN_ANOMALY":"259.7382","MEAN_ELEMENT_THEORY":"SGP4","MEAN_MOTION_DDOT":"0.0000000000000","CENTER_NAME":"EARTH","TLE_LINE1":"1 52281U 22041W   23127.48537150 -.00002019  00000-0 -10885-3 0  9994"},{"EPHEMERIS_TYPE":"0","SEMIMAJOR_AXIS":"6917.859","SITE":"AFETR","EPOCH":"2023-05-07T03:11:31.115328","TIME_SYSTEM":"UTC","REV_AT_EPOCH":"5786","RCS_SIZE":"LARGE","MEAN_MOTION_DOT":"0.00000663","OBJECT_TYPE":"PAYLOAD","REF_FRAME":"TEME","LAUNCH_DATE":"2022-04-21","APOAPSIS":"540.711","ECCENTRICITY":"0.00014260","PERIOD":"95.437","OBJECT_ID":"2022-041X","COUNTRY_CODE":"US","INCLINATION":"53.2173","OBJECT_NAME":"STARLINK-3783","TLE_LINE2":"2 52282  53.2173  76.8985 0001426  95.5047 264.6107 15.08846941 57866","ARG_OF_PERICENTER":"95.5047","CENTER_NAME":"EARTH","TLE_LINE1":"1 52282U 22041X   23127.13299902  .00000663  00000-0  59749-4 0  9991","FILE":"3903215","MEAN_ANOMALY":"264.6107","MEAN_ELEMENT_THEORY":"SGP4","MEAN_MOTION_DDOT":"0.0000000000000","RA_OF_ASC_NODE":"76.8985","BSTAR":"0.00005974900000","DECAY_DATE":null,"GP_ID":"231398587","MEAN_MOTION":"15.08846941","CLASSIFICATION_TYPE":"U","PERIAPSIS":"538.738","ELEMENT_SET_NO":"999","NORAD_CAT_ID":"52282"},{"MEAN_MOTION":"15.08846938","GP_ID":"231399838","ELEMENT_SET_NO":"999","CLASSIFICATION_TYPE":"U","PERIAPSIS":"538.855","NORAD_CAT_ID":"52283","RA_OF_ASC_NODE":"86.5348","BSTAR":"-0.00003412500000","DECAY_DATE":null,"FILE":"3903215","MEAN_ANOMALY":"267.6991","MEAN_ELEMENT_THEORY":"SGP4","MEAN_MOTION_DDOT":"0.0000000000000","TLE_LINE1":"1 52283U 22041Y   23127.21209481 -.00000831  00000-0 -34125-4 0  9994","CENTER_NAME":"EARTH","APOAPSIS":"540.593","ECCENTRICITY":"0.00012560","COUNTRY_CODE":"US","INCLINATION":"53.2163","OBJECT_ID":"2022-041Y","OBJECT_NAME":"STARLINK-3789","PERIOD":"95.437","TLE_LINE2":"2 52283  53.2163  86.5348 0001256  92.4145 267.6991 15.08846938 57740","ARG_OF_PERICENTER":"92.4145","OBJECT_TYPE":"PAYLOAD","REF_FRAME":"TEME","LAUNCH_DATE":"2022-04-21","REV_AT_EPOCH":"5774","MEAN_MOTION_DOT":"-0.00000831","RCS_SIZE":"LARGE","EPHEMERIS_TYPE":"0","SEMIMAJOR_AXIS":"6917.859","EPOCH":"2023-05-07T05:05:24.991584","SITE":"AFETR","TIME_SYSTEM":"UTC"},{"NORAD_CAT_ID":"52284","GP_ID":"231362449","MEAN_MOTION":"15.08861355","PERIAPSIS":"538.854","CLASSIFICATION_TYPE":"U","ELEMENT_SET_NO":"999","DECAY_DATE":null,"BSTAR":"0.00015535000000","RA_OF_ASC_NODE":"76.9269","MEAN_ELEMENT_THEORY":"SGP4","MEAN_MOTION_DDOT":"0.0000000000000","FILE":"3902579","MEAN_ANOMALY":"265.9776","CENTER_NAME":"EARTH","TLE_LINE1":"1 52284U 22041Z   23127.12466701  .00002187  00000-0  15535-3 0  9992","TLE_LINE2":"2 52284  53.2168  76.9269 0001194  94.1352 265.9776 15.08861355 59082","ARG_OF_PERICENTER":"94.1352","ECCENTRICITY":"0.00011940","APOAPSIS":"540.506","PERIOD":"95.436","COUNTRY_CODE":"US","INCLINATION":"53.2168","OBJECT_NAME":"STARLINK-3561","OBJECT_ID":"2022-041Z","LAUNCH_DATE":"2022-04-21","OBJECT_TYPE":"PAYLOAD","REF_FRAME":"TEME","MEAN_MOTION_DOT":"0.00002187","RCS_SIZE":"LARGE","REV_AT_EPOCH":"5908","SITE":"AFETR","EPOCH":"2023-05-07T02:59:31.229664","TIME_SYSTEM":"UTC","EPHEMERIS_TYPE":"0","SEMIMAJOR_AXIS":"6917.815"},{"REV_AT_EPOCH":"5774","MEAN_MOTION_DOT":"0.00001338","RCS_SIZE":"LARGE","EPHEMERIS_TYPE":"0","SEMIMAJOR_AXIS":"6917.853","SITE":"AFETR","EPOCH":"2023-05-07T05:00:05.537952","TIME_SYSTEM":"UTC","ECCENTRICITY":"0.00036770","APOAPSIS":"542.262","PERIOD":"95.437","COUNTRY_CODE":"US","INCLINATION":"53.2164","OBJECT_NAME":"STARLINK-3775","OBJECT_ID":"2022-041AA","TLE_LINE2":"2 52285  53.2164  86.5620 0003677  37.8425 322.2825 15.08848899 57741","ARG_OF_PERICENTER":"37.8425","OBJECT_TYPE":"PAYLOAD","REF_FRAME":"TEME","LAUNCH_DATE":"2022-04-21","FILE":"3903215","MEAN_ANOMALY":"322.2825","MEAN_ELEMENT_THEORY":"SGP4","MEAN_MOTION_DDOT":"0.0000000000000","CENTER_NAME":"EARTH","TLE_LINE1":"1 52285U 22041AA  23127.20839743  .00001338  00000-0  10216-3 0  9990","GP_ID":"231398837","MEAN_MOTION":"15.08848899","PERIAPSIS":"537.174","CLASSIFICATION_TYPE":"U","ELEMENT_SET_NO":"999","NORAD_CAT_ID":"52285","RA_OF_ASC_NODE":"86.5620","DECAY_DATE":null,"BSTAR":"0.00010216000000"},{"CENTER_NAME":"EARTH","TLE_LINE1":"1 52286U 22041AB  23127.18355386  .00001128  00000-0  88906-4 0  9993","MEAN_ANOMALY":"268.4806","FILE":"3903353","MEAN_MOTION_DDOT":"0.0000000000000","MEAN_ELEMENT_THEORY":"SGP4","RA_OF_ASC_NODE":"76.6627","BSTAR":"0.00008890600000","DECAY_DATE":null,"PERIAPSIS":"538.964","CLASSIFICATION_TYPE":"U","ELEMENT_SET_NO":"999","GP_ID":"231404929","MEAN_MOTION":"15.08853058","NORAD_CAT_ID":"52286","SEMIMAJOR_AXIS":"6917.840","EPHEMERIS_TYPE":"0","TIME_SYSTEM":"UTC","SITE":"AFETR","EPOCH":"2023-05-07T04:24:19.053504","REV_AT_EPOCH":"5909","MEAN_MOTION_DOT":"0.00001128","RCS_SIZE":"MEDIUM","REF_FRAME":"TEME","OBJECT_TYPE":"PAYLOAD","LAUNCH_DATE":"2022-04-21","PERIOD":"95.437","COUNTRY_CODE":"US","OBJECT_ID":"2022-041AB","INCLINATION":"53.2169","OBJECT_NAME":"STARLINK-3802","ECCENTRICITY":"0.00010720","APOAPSIS":"540.447","ARG_OF_PERICENTER":"91.6309","TLE_LINE2":"2 52286  53.2169  76.6627 0001072  91.6309 268.4806 15.08853058 59093"}];
